     2.11           N: GPS NAV DATA                         RINEX VERSION / TYPE
teqc  2019Feb25     CORS-ADM Account    20260505 06:45:02UTCPGM / RUN BY / DATE
Linux 2.4.21-27.ELsmp|Opteron|gcc|Linux 64|=+               COMMENT
     2.10           N: GPS NAV DATA                         COMMENT
rvacn.e(1404.07)                        2026-05-05T06:27 UTCCOMMENT
This file contains the validated broadcast navigation       COMMENT
messages from the following files:                          COMMENT
aaaa1250.26n, abmf125f.26n, albh125f.26n, alic125f.26n,     COMMENT
areq125f.26n, aruc125f.26n, baie125f.26n, bake125f.26n,     COMMENT
brew125f.26n, brst125f.26n, brux125f.26n, bucu125f.26n,     COMMENT
cebr125f.26n, chum125f.26n, chur125f.26n, ckis125f.26n,     COMMENT
coco125f.26n, cro1125f.26n, darw125f.26n, dav1125f.26n,     COMMENT
dgar125f.26n, djig125f.26n, dlf1125f.26n, drao125f.26n,     COMMENT
dubo125f.26n, ebre125f.26n, fair125f.26n, falk125f.26n,     COMMENT
flin125f.26n, glps125f.26n, glsv125f.26n, gode125f.26n,     COMMENT
guam125f.26n, harb125f.26n, hers125f.26n, hlfx125f.26n,     COMMENT
hob2125f.26n, hofn125f.26n, holb125f.26n, hrao125f.26n,     COMMENT
iisc125f.26n, iqal125f.26n, ista125f.26n, joze125f.26n,     COMMENT
jplm125f.26n, karr125f.26n, kat1125f.26n, kiru125f.26n,     COMMENT
kokb125f.26n, koug125f.26n, kour125f.26n, lmmf125f.26n,     COMMENT
lpal125f.26n, m0se125f.26n, mac1125f.26n, maju125f.26n,     COMMENT
mal2125f.26n, mar6125f.26n, mas1125f.26n, mat1125f.26n,     COMMENT
mate125f.26n, maw1125f.26n, mcm4125f.26n, mdo1125f.26n,     COMMENT
medi125f.26n, met3125f.26n, mkea125f.26n, mobs125f.26n,     COMMENT
mro1125f.26n, nain125f.26n, nano125f.26n, naur125f.26n,     COMMENT
nico125f.26n, nklg125f.26n, nlib125f.26n, nnor125f.26n,     COMMENT
not1125f.26n, nrc1125f.26n, onsa125f.26n, orid125f.26n,     COMMENT
palm125f.26n, pert125f.26n, picl125f.26n, pie1125f.26n,     COMMENT
pimo125f.26n, pohn125f.26n, prds125f.26n, ptvl125f.26n,     COMMENT
qaq1125f.26n, qiki125f.26n, reso125f.26n, reun125f.26n,     COMMENT
reyk125f.26n, riga125f.26n, sant125f.26n, sask125f.26n,     COMMENT
sch2125f.26n, scor125f.26n, solo125f.26n, stj3125f.26n,     COMMENT
stjo125f.26n, stpm125f.26n, suth125f.26n, suwn125f.26n,     COMMENT
sydn125f.26n, thtg125f.26n, thu2125f.26n, tid1125f.26n,     COMMENT
tow2125f.26n, tuva125f.26n, unbj125f.26n, usud125f.26n,     COMMENT
vacs125f.26n, vald125f.26n, vill125f.26n, warn125f.26n,     COMMENT
whit125f.26n, will125f.26n, wsrt125f.26n, wtzr125f.26n,     COMMENT
xmis125f.26n, yar2125f.26n, yarr125f.26n, yebe125f.26n,     COMMENT
yell125f.26n, zim2125f.26n, zimm125f.26n                    COMMENT
    1.9560D-08  2.2350D-08 -1.1920D-07 -1.1920D-07          ION ALPHA
    1.2080D+05  9.8300D+04 -1.9660D+05 -6.5540D+04          ION BETA
    0.000000000000D+00-1.776356839400D-15   319488     2417 DELTA-UTC: A0,A1,T,W
                                                            END OF HEADER
15 26  5  5  4  0  0.0 4.088692367077D-04 3.296918293927D-12 0.000000000000D+00
    2.000000000000D+01-6.253125000000D+01 4.691623996400D-09 2.546569201503D+00
   -3.326684236526D-06 1.670104078948D-02 9.831041097641D-06 5.153728799820D+03
    1.872000000000D+05 1.527369022369D-07-2.426278309122D+00-1.322478055954D-07
    9.436054317652D-01 1.789687500000D+02 1.513582573555D+00-7.639246776720D-09
    3.982308736286D-10 1.000000000000D+00 2.417000000000D+03 0.000000000000D+00
    2.000000000000D+00 0.000000000000D+00-1.117587089539D-08 2.000000000000D+01
    1.800180000000D+05 4.000000000000D+00
16 26  5  5  4  0  0.0 2.573123201728D-04 6.934897101019D-12 0.000000000000D+00
    7.700000000000D+01 2.193750000000D+01 4.408755070916D-09-1.686851942600D+00
    1.139938831329D-06 1.499880547635D-02 9.024515748024D-06 5.153676906586D+03
    1.872000000000D+05 2.775341272354D-07-7.258918609954D-02-8.381903171539D-08
    9.584304387720D-01 2.029062500000D+02 9.331152572988D-01-7.628174886960D-09
   -5.085926134952D-10 1.000000000000D+00 2.417000000000D+03 0.000000000000D+00
    2.000000000000D+00 0.000000000000D+00-1.071020960808D-08 7.700000000000D+01
    1.800180000000D+05 4.000000000000D+00
18 26  5  5  4  0  0.0-3.603212535381D-04 9.322320693173D-12 0.000000000000D+00
    2.320000000000D+02 2.618750000000D+01 4.354467095319D-09 1.539657070954D+00
    1.354143023491D-06 5.918300244957D-03 8.083879947662D-07 5.153629440308D+03
    1.872000000000D+05-8.381903171539D-08 1.955231068274D+00 3.352761268616D-08
    9.710922229632D-01 3.700000000000D+02-2.874841834736D+00-8.274987543589D-09
   -7.143154683922D-12 1.000000000000D+00 2.417000000000D+03 0.000000000000D+00
    2.000000000000D+00 0.000000000000D+00-8.381903171539D-09 2.320000000000D+02
    1.800180000000D+05 4.000000000000D+00
19 26  5  5  4  0  0.0 6.989552639425D-04 1.023181539495D-12 0.000000000000D+00
    2.500000000000D+01 1.079375000000D+02 4.303036381594D-09-1.028211850591D+00
    5.623325705528D-06 1.143510022666D-02 6.629154086113D-06 5.153737899780D+03
    1.872000000000D+05-5.774199962616D-08 9.873310569073D-01-3.147870302200D-07
    9.576169773223D-01 2.551875000000D+02 2.966523310140D+00-7.910329496975D-09
    1.110760553350D-10 1.000000000000D+00 2.417000000000D+03 0.000000000000D+00
    2.000000000000D+00 0.000000000000D+00-1.536682248116D-08 2.500000000000D+01
    1.800180000000D+05 4.000000000000D+00
20 26  5  5  4  0  0.0 1.400760374963D-04 1.739408617141D-11 0.000000000000D+00
    2.400000000000D+01-3.543750000000D+01 4.450899683552D-09-8.479970687674D-02
   -2.000480890274D-06 2.108424436301D-03 9.914860129356D-06 5.153601728439D+03
    1.872000000000D+05-5.401670932770D-08-2.275447983645D+00 1.117587089539D-08
    9.608884337288D-01 1.904062500000D+02-1.868801186431D+00-7.830683322249D-09
    5.268076579392D-10 1.000000000000D+00 2.417000000000D+03 0.000000000000D+00
    2.000000000000D+00 0.000000000000D+00-8.847564458847D-09 2.400000000000D+01
    1.800180000000D+05 4.000000000000D+00
21 26  5  5  4  0  0.0 4.149321466684D-04-3.410605131648D-13 0.000000000000D+00
    1.930000000000D+02-1.104375000000D+02 4.276606709264D-09-3.990601611089D-01
   -5.710870027542D-06 7.667912868783D-04 6.111338734627D-06 5.153547050476D+03
    1.872000000000D+05-2.421438694000D-08 3.002578159444D+00-1.303851604462D-08
    9.638268890186D-01 2.583437500000D+02-1.830313453159D-01-7.997833141853D-09
   -1.214336296267D-11 1.000000000000D+00 2.417000000000D+03 0.000000000000D+00
    2.000000000000D+00 0.000000000000D+00-9.778887033463D-09 4.490000000000D+02
    1.811580000000D+05 4.000000000000D+00
22 26  5  5  4  0  0.0-7.634982466698D-06 6.480149750132D-12 0.000000000000D+00
    1.020000000000D+02 2.037500000000D+01 4.407326439980D-09-2.121379677716D+00
    9.685754776001D-07 1.195179671049D-02 9.274110198021D-06 5.153727336884D+03
    1.872000000000D+05-9.872019290924D-08-6.922362602474D-02 3.185123205185D-07
    9.578861776556D-01 1.998437500000D+02-9.946014949731D-01-7.712821269964D-09
   -6.393123442110D-10 1.000000000000D+00 2.417000000000D+03 0.000000000000D+00
    2.000000000000D+00 0.000000000000D+00-1.117587089539D-08 1.020000000000D+02
    1.812480000000D+05 4.000000000000D+00
23 26  5  5  4  0  0.0 6.438679993153D-04 4.320099833421D-12 0.000000000000D+00
    2.040000000000D+02-1.145625000000D+02 3.795158083568D-09 3.617643505830D-01
   -5.932524800301D-06 6.163316313177D-03 5.923211574554D-06 5.153716964722D+03
    1.872000000000D+05 5.029141902924D-08 2.963348163483D+00 1.285225152969D-07
    9.888919158890D-01 2.827187500000D+02-2.742257863259D+00-7.824611640768D-09
   -6.035965707914D-11 1.000000000000D+00 2.417000000000D+03 0.000000000000D+00
    2.000000000000D+00 0.000000000000D+00-8.847564458847D-09 4.600000000000D+02
    1.800180000000D+05 4.000000000000D+00
24 26  5  5  4  0  0.0-4.410743713379D-06 1.830358087318D-11 0.000000000000D+00
    1.300000000000D+01-2.156250000000D+00 5.556660028623D-09 1.729736104577D+00
   -4.284083843231D-07 1.804967399221D-02 5.785375833511D-06 5.153632818222D+03
    1.872000000000D+05-3.166496753693D-07-1.317298128172D+00-3.706663846970D-07
    9.346169075971D-01 2.565937500000D+02 1.144864019519D+00-8.354633718315D-09
    2.014369620866D-10 1.000000000000D+00 2.417000000000D+03 0.000000000000D+00
    2.000000000000D+00 0.000000000000D+00 2.328306436539D-09 1.300000000000D+01
    1.800180000000D+05 4.000000000000D+00
25 26  5  5  4  0  0.0 4.250910133123D-04-2.842170943040D-12 0.000000000000D+00
    6.500000000000D+01 1.046875000000D+01 4.923062208159D-09-7.281023302132D-02
    6.146728992462D-07 1.286456116941D-02 8.696690201759D-06 5.153697406769D+03
    1.872000000000D+05-8.568167686462D-08-1.839351287907D-01 1.322478055954D-07
    9.476416490784D-01 2.048437500000D+02 1.159923886320D+00-8.239628927904D-09
   -5.896674191577D-10 1.000000000000D+00 2.417000000000D+03 0.000000000000D+00
    2.000000000000D+00 0.000000000000D+00 5.587935447693D-09 6.500000000000D+01
    1.800180000000D+05 4.000000000000D+00
26 26  5  5  4  0  0.0-3.615287132561D-04-4.206412995700D-12 0.000000000000D+00
    1.480000000000D+02 1.625000000000D+00 5.319507293116D-09-9.032770666698D-01
    7.450580596924D-08 1.105316251051D-02 8.098781108856D-06 5.153747577667D+03
    1.872000000000D+05 2.067536115646D-07-2.596061112823D-01 1.527369022369D-07
    9.283495675887D-01 2.059375000000D+02 7.134338452005D-01-8.296059849907D-09
   -6.135969873489D-10 1.000000000000D+00 2.417000000000D+03 0.000000000000D+00
    2.000000000000D+00 0.000000000000D+00 6.519258022308D-09 1.480000000000D+02
    1.807380000000D+05 4.000000000000D+00
